start=new Date('2023-03-14T00:00:00.000Z').valueOf();
sats=[{"NORAD_CAT_ID":"52602","GP_ID":"228035105","BSTAR":"0.00243090000000","MEAN_MOTION":"15.08863898","TLE_LINE1":"1 52602U 22052E   23072.69559751  .00038637  00000-0  24309-2 0  9994","PERIAPSIS":"539.054","EPOCH":"2023-03-13T16:41:39.624864","CLASSIFICATION_TYPE":"U","MEAN_MOTION_DDOT":"0.0000000000000","TLE_LINE2":"2 52602  53.2152 141.2739 0000894  99.7573 260.3520 15.08863898 46805","EPHEMERIS_TYPE":"0","ELEMENT_SET_NO":"999","MEAN_MOTION_DOT":"0.00038637","FILE":"3859631","INCLINATION":"53.2152","MEAN_ELEMENT_THEORY":"SGP4","ARG_OF_PERICENTER":"99.7573","RA_OF_ASC_NODE":"141.2739","CENTER_NAME":"EARTH","SEMIMAJOR_AXIS":"6917.807","MEAN_ANOMALY":"260.3520","REF_FRAME":"TEME","SITE":"AFETR","APOAPSIS":"540.291","ECCENTRICITY":"0.00008940","REV_AT_EPOCH":"4680","TIME_SYSTEM":"UTC","DECAY_DATE":null,"OBJECT_ID":"2022-052E","OBJECT_TYPE":"PAYLOAD","PERIOD":"95.436","OBJECT_NAME":"STARLINK-4012","RCS_SIZE":"LARGE","COUNTRY_CODE":"US","LAUNCH_DATE":"2022-05-14"},{"MEAN_MOTION_DDOT":"0.0000000000000","CLASSIFICATION_TYPE":"U","EPOCH":"2023-03-13T03:38:44.929824","TLE_LINE2":"2 52603  53.2135 143.7238 0001187  95.2949 264.8178 15.08854393 46293","EPHEMERIS_TYPE":"0","MEAN_MOTION_DOT":"0.00011629","ELEMENT_SET_NO":"999","BSTAR":"0.00074726000000","GP_ID":"228007373","NORAD_CAT_ID":"52603","TLE_LINE1":"1 52603U 22052F   23072.15190891  .00011629  00000-0  74726-3 0  9993","MEAN_MOTION":"15.08854393","PERIAPSIS":"538.880","OBJECT_TYPE":"PAYLOAD","COUNTRY_CODE":"US","RCS_SIZE":"LARGE","OBJECT_NAME":"STARLINK-4016","PERIOD":"95.437","LAUNCH_DATE":"2022-05-14","INCLINATION":"53.2135","FILE":"3859428","SITE":"AFETR","REF_FRAME":"TEME","SEMIMAJOR_AXIS":"6917.836","MEAN_ANOMALY":"264.8178","CENTER_NAME":"EARTH","ARG_OF_PERICENTER":"95.2949","RA_OF_ASC_NODE":"143.7238","MEAN_ELEMENT_THEORY":"SGP4","REV_AT_EPOCH":"4629","ECCENTRICITY":"0.00011870","APOAPSIS":"540.523","OBJECT_ID":"2022-052F","DECAY_DATE":null,"TIME_SYSTEM":"UTC"},{"INCLINATION":"53.2156","FILE":"3859425","CENTER_NAME":"EARTH","RA_OF_ASC_NODE":"143.3859","ARG_OF_PERICENTER":"122.1005","MEAN_ELEMENT_THEORY":"SGP4","SITE":"AFETR","SEMIMAJOR_AXIS":"6917.840","MEAN_ANOMALY":"238.0141","REF_FRAME":"TEME","APOAPSIS":"540.796","REV_AT_EPOCH":"4593","ECCENTRICITY":"0.00015770","TIME_SYSTEM":"UTC","DECAY_DATE":null,"OBJECT_ID":"2022-052G","OBJECT_TYPE":"PAYLOAD","PERIOD":"95.437","RCS_SIZE":"LARGE","COUNTRY_CODE":"US","OBJECT_NAME":"STARLINK-4013","LAUNCH_DATE":"2022-05-14","NORAD_CAT_ID":"52604","GP_ID":"228004718","BSTAR":"0.00099266000000","TLE_LINE1":"1 52604U 22052G   23072.22455203  .00015551  00000-0  99266-3 0  9997","MEAN_MOTION":"15.08853055","PERIAPSIS":"538.615","CLASSIFICATION_TYPE":"U","EPOCH":"2023-03-13T05:23:21.295392","MEAN_MOTION_DDOT":"0.0000000000000","TLE_LINE2":"2 52604  53.2156 143.3859 0001577 122.1005 238.0141 15.08853055 45935","EPHEMERIS_TYPE":"0","MEAN_MOTION_DOT":"0.00015551","ELEMENT_SET_NO":"999"},{"OBJECT_TYPE":"PAYLOAD","OBJECT_NAME":"STARLINK-4000","RCS_SIZE":"LARGE","COUNTRY_CODE":"US","PERIOD":"95.438","LAUNCH_DATE":"2022-05-14","FILE":"3858743","INCLINATION":"53.2163","SEMIMAJOR_AXIS":"6917.881","MEAN_ANOMALY":"245.6808","REF_FRAME":"TEME","SITE":"AFETR","ARG_OF_PERICENTER":"114.4315","RA_OF_ASC_NODE":"151.2070","MEAN_ELEMENT_THEORY":"SGP4","CENTER_NAME":"EARTH","ECCENTRICITY":"0.00012570","REV_AT_EPOCH":"4576","APOAPSIS":"540.616","DECAY_DATE":null,"OBJECT_ID":"2022-052H","TIME_SYSTEM":"UTC","MEAN_MOTION_DDOT":"0.0000000000000","EPOCH":"2023-03-12T14:19:10.166016","CLASSIFICATION_TYPE":"U","TLE_LINE2":"2 52605  53.2163 151.2070 0001257 114.4315 245.6808 15.08839780 45764","EPHEMERIS_TYPE":"0","ELEMENT_SET_NO":"999","MEAN_MOTION_DOT":"0.00006746","GP_ID":"227962936","BSTAR":"0.00044151000000","NORAD_CAT_ID":"52605","MEAN_MOTION":"15.08839780","TLE_LINE1":"1 52605U 22052H   23071.59664544  .00006746  00000-0  44151-3 0  9996","PERIAPSIS":"538.876"},{"OBJECT_TYPE":"PAYLOAD","OBJECT_NAME":"STARLINK-3928","RCS_SIZE":"LARGE","COUNTRY_CODE":"US","PERIOD":"95.437","LAUNCH_DATE":"2022-05-14","FILE":"3859428","INCLINATION":"53.2148","MEAN_ANOMALY":"242.6318","SEMIMAJOR_AXIS":"6917.866","REF_FRAME":"TEME","SITE":"AFETR","ARG_OF_PERICENTER":"117.4873","RA_OF_ASC_NODE":"143.4020","MEAN_ELEMENT_THEORY":"SGP4","CENTER_NAME":"EARTH","ECCENTRICITY":"0.00019500","REV_AT_EPOCH":"4630","APOAPSIS":"541.080","OBJECT_ID":"2022-052J","DECAY_DATE":null,"TIME_SYSTEM":"UTC","MEAN_MOTION_DDOT":"0.0000000000000","CLASSIFICATION_TYPE":"U","EPOCH":"2023-03-13T05:18:03.391776","TLE_LINE2":"2 52606  53.2148 143.4020 0001950 117.4873 242.6318 15.08844665 46300","EPHEMERIS_TYPE":"0","ELEMENT_SET_NO":"999","MEAN_MOTION_DOT":"0.00009379","BSTAR":"0.00060654000000","GP_ID":"228007374","NORAD_CAT_ID":"52606","MEAN_MOTION":"15.08844665","TLE_LINE1":"1 52606U 22052J   23072.22087259  .00009379  00000-0  60654-3 0  9991","PERIAPSIS":"538.382"},{"MEAN_MOTION":"15.08840192","TLE_LINE1":"1 52607U 22052K   23072.58385405  .00004190  00000-0  28117-3 0  9999","PERIAPSIS":"538.626","NORAD_CAT_ID":"52607","BSTAR":"0.00028117000000","GP_ID":"228007224","EPHEMERIS_TYPE":"0","ELEMENT_SET_NO":"999","MEAN_MOTION_DOT":"0.00004190","EPOCH":"2023-03-13T14:00:44.989920","CLASSIFICATION_TYPE":"U","MEAN_MOTION_DDOT":"0.0000000000000","TLE_LINE2":"2 52607  53.2153 146.7870 0001617  82.2099 277.9077 15.08840192 46286","APOAPSIS":"540.863","ECCENTRICITY":"0.00016170","REV_AT_EPOCH":"4628","TIME_SYSTEM":"UTC","OBJECT_ID":"2022-052K","DECAY_DATE":null,"FILE":"3859428","INCLINATION":"53.2153","ARG_OF_PERICENTER":"82.2099","MEAN_ELEMENT_THEORY":"SGP4","RA_OF_ASC_NODE":"146.7870","CENTER_NAME":"EARTH","REF_FRAME":"TEME","SEMIMAJOR_AXIS":"6917.880","MEAN_ANOMALY":"277.9077","SITE":"AFETR","LAUNCH_DATE":"2022-05-14","OBJECT_TYPE":"PAYLOAD","PERIOD":"95.438","OBJECT_NAME":"STARLINK-3947","COUNTRY_CODE":"US","RCS_SIZE":"LARGE"},{"MEAN_MOTION_DDOT":"0.0000000000000","EPOCH":"2023-03-13T16:15:08.395200","CLASSIFICATION_TYPE":"U","TLE_LINE2":"2 52608  53.2140 141.3546 0001259  75.2540 284.8591 15.08875268 46009","EPHEMERIS_TYPE":"0","MEAN_MOTION_DOT":"0.00038545","ELEMENT_SET_NO":"999","GP_ID":"228033605","BSTAR":"0.00242440000000","NORAD_CAT_ID":"52608","TLE_LINE1":"1 52608U 22052L   23072.67718050  .00038545  00000-0  24244-2 0  9993","MEAN_MOTION":"15.08875268","PERIAPSIS":"538.767","OBJECT_TYPE":"PAYLOAD","COUNTRY_CODE":"US","RCS_SIZE":"LARGE","OBJECT_NAME":"STARLINK-3979","PERIOD":"95.435","LAUNCH_DATE":"2022-05-14","FILE":"3859631","INCLINATION":"53.2140","SITE":"AFETR","SEMIMAJOR_AXIS":"6917.773","MEAN_ANOMALY":"284.8591","REF_FRAME":"TEME","CENTER_NAME":"EARTH","ARG_OF_PERICENTER":"75.2540","RA_OF_ASC_NODE":"141.3546","MEAN_ELEMENT_THEORY":"SGP4","REV_AT_EPOCH":"4600","ECCENTRICITY":"0.00012590","APOAPSIS":"540.509","OBJECT_ID":"2022-052L","DECAY_DATE":null,"TIME_SYSTEM":"UTC"},{"DECAY_DATE":null,"OBJECT_ID":"2022-052M","TIME_SYSTEM":"UTC","ECCENTRICITY":"0.00012170","REV_AT_EPOCH":"4600","APOAPSIS":"540.456","SEMIMAJOR_AXIS":"6917.750","REF_FRAME":"TEME","MEAN_ANOMALY":"266.3351","SITE":"AFETR","ARG_OF_PERICENTER":"93.7780","RA_OF_ASC_NODE":"141.3552","MEAN_ELEMENT_THEORY":"SGP4","CENTER_NAME":"EARTH","INCLINATION":"53.2138","FILE":"3859631","LAUNCH_DATE":"2022-05-14","OBJECT_NAME":"STARLINK-3997","COUNTRY_CODE":"US","RCS_SIZE":"LARGE","PERIOD":"95.435","OBJECT_TYPE":"PAYLOAD","PERIAPSIS":"538.773","MEAN_MOTION":"15.08882811","TLE_LINE1":"1 52609U 22052M   23072.66613793  .00036910  00000-0  23224-2 0  9992","GP_ID":"228034356","BSTAR":"0.00232240000000","NORAD_CAT_ID":"52609","ELEMENT_SET_NO":"999","MEAN_MOTION_DOT":"0.00036910","EPHEMERIS_TYPE":"0","TLE_LINE2":"2 52609  53.2138 141.3552 0001217  93.7780 266.3351 15.08882811 46000","MEAN_MOTION_DDOT":"0.0000000000000","EPOCH":"2023-03-13T15:59:14.317152","CLASSIFICATION_TYPE":"U"},{"PERIAPSIS":"539.104","MEAN_MOTION":"15.08822701","TLE_LINE1":"1 52610U 22052N   23071.85793334  .00024629  00000-0  15609-2 0  9996","GP_ID":"227966939","BSTAR":"0.00156090000000","NORAD_CAT_ID":"52610","ELEMENT_SET_NO":"999","MEAN_MOTION_DOT":"0.00024629","EPHEMERIS_TYPE":"0","TLE_LINE2":"2 52610  53.2151 150.0340 0001003  77.8464 282.2640 15.08822701 46172","MEAN_MOTION_DDOT":"0.0000000000000","CLASSIFICATION_TYPE":"U","EPOCH":"2023-03-12T20:35:25.440576","OBJECT_ID":"2022-052N","DECAY_DATE":null,"TIME_SYSTEM":"UTC","ECCENTRICITY":"0.00010030","REV_AT_EPOCH":"4617","APOAPSIS":"540.492","MEAN_ANOMALY":"282.2640","SEMIMAJOR_AXIS":"6917.933","REF_FRAME":"TEME","SITE":"AFETR","ARG_OF_PERICENTER":"77.8464","MEAN_ELEMENT_THEORY":"SGP4","RA_OF_ASC_NODE":"150.0340","CENTER_NAME":"EARTH","INCLINATION":"53.2151","FILE":"3858752","LAUNCH_DATE":"2022-05-14","OBJECT_NAME":"STARLINK-3998","RCS_SIZE":"LARGE","COUNTRY_CODE":"US","PERIOD":"95.439","OBJECT_TYPE":"PAYLOAD"},{"NORAD_CAT_ID":"52611","GP_ID":"228003977","BSTAR":"0.00026723000000","TLE_LINE1":"1 52611U 22052P   23072.57921329  .00003968  00000-0  26723-3 0  9997","MEAN_MOTION":"15.08840184","PERIAPSIS":"538.617","EPOCH":"2023-03-13T13:54:04.028256","CLASSIFICATION_TYPE":"U","MEAN_MOTION_DDOT":"0.0000000000000","TLE_LINE2":"2 52611  53.2140 146.7966 0001631 107.7704 252.3467 15.08840184 45915","EPHEMERIS_TYPE":"0","MEAN_MOTION_DOT":"0.00003968","ELEMENT_SET_NO":"999","FILE":"3859425","INCLINATION":"53.2140","CENTER_NAME":"EARTH","RA_OF_ASC_NODE":"146.7966","ARG_OF_PERICENTER":"107.7704","MEAN_ELEMENT_THEORY":"SGP4","SITE":"AFETR","REF_FRAME":"TEME","SEMIMAJOR_AXIS":"6917.880","MEAN_ANOMALY":"252.3467","APOAPSIS":"540.873","REV_AT_EPOCH":"4591","ECCENTRICITY":"0.00016310","TIME_SYSTEM":"UTC","DECAY_DATE":null,"OBJECT_ID":"2022-052P","OBJECT_TYPE":"PAYLOAD","PERIOD":"95.438","RCS_SIZE":"LARGE","COUNTRY_CODE":"US","OBJECT_NAME":"STARLINK-3980","LAUNCH_DATE":"2022-05-14"}];
